[{"OBJECT_NAME":"STARLINK-3107","OBJECT_ID":"2021-082AT","EPOCH":"2026-03-09T21:59:27.140640","MEAN_MOTION":15.10504087,"ECCENTRICITY":0.00073375,"INCLINATION":69.9932,"RA_OF_ASC_NODE":287.3824,"ARG_OF_PERICENTER":250.2407,"MEAN_ANOMALY":109.7967,"EPHEMERIS_TYPE":0,"CLASSIFICATION_TYPE":"U","NORAD_CAT_ID":49171,"ELEMENT_SET_NO":999,"REV_AT_EPOCH":24733,"BSTAR":0.001517345,"MEAN_MOTION_DOT":0.00025048,"MEAN_MOTION_DDOT":0},{"OBJECT_NAME":"EOS-4","OBJECT_ID":"2022-013A","EPOCH":"2026-03-08T11:43:14.619360","MEAN_MOTION":15.12745091,"ECCENTRICITY":0.0001929,"INCLINATION":97.5144,"RA_OF_ASC_NODE":75.6612,"ARG_OF_PERICENTER":90.8949,"MEAN_ANOMALY":269.2503,"EPHEMERIS_TYPE":0,"CLASSIFICATION_TYPE":"U","NORAD_CAT_ID":51656,"ELEMENT_SET_NO":999,"REV_AT_EPOCH":22426,"BSTAR":0.00016489167,"MEAN_MOTION_DOT":2.825e-5,"MEAN_MOTION_DDOT":0}]
